{
  "62103": {
    "noradId": "62103",
    "tle": [
      "1 62103C 24220R   25343.47201389  .00033235  00000+0  12035-2 0  3434",
      "2 62103  43.0006 354.7444 0001411 280.3588 203.9682 15.27552879    11"
    ]
  },
  "62104": {
    "noradId": "62104",
    "tle": [
      "1 62104C 24220S   25343.47062500  .00034029  00000+0  12326-2 0  3430",
      "2 62104  43.0034 355.1866 0000884 245.0987  47.7178 15.27543809    17"
    ]
  },
  "62107": {
    "noradId": "62107",
    "tle": [
      "1 62107C 24220V   25343.46506944 -.00026234  00000+0 -95007-3 0  3436",
      "2 62107  43.0032 355.1680 0001054 283.0692   0.3575 15.27609148    12"
    ]
  },
  "62108": {
    "noradId": "62108",
    "tle": [
      "1 62108C 24220W   25343.46576389  .00029305  00000+0  10615-2 0  3438",
      "2 62108  43.0022 355.0663 0001506 270.0025  59.7103 15.27547329    17"
    ]
  },
  "62109": {
    "noradId": "62109",
    "tle": [
      "1 62109C 24220X   25343.47131944  .00037899  00000+0  13728-2 0  3439",
      "2 62109  43.0001 354.8502 0001315 251.0713 187.0550 15.27539494    10"
    ]
  },
  "62110": {
    "noradId": "62110",
    "tle": [
      "1 62110C 24220Y   25343.47062500  .00028407  00000+0  10290-2 0  3438",
      "2 62110  43.0026 355.0864 0001237 275.9654  59.2973 15.27548396    15"
    ]
  },
  "62114": {
    "noradId": "62114",
    "tle": [
      "1 62114C 24222A   25343.46784722 -.00080082  00000+0 -28999-2 0  3434",
      "2 62114  43.0023 270.7325 0001607 257.9576 111.1599 15.27664754    14"
    ]
  },
  "62115": {
    "noradId": "62115",
    "tle": [
      "1 62115C 24222B   25343.46715278  .00040421  00000+0  14628-2 0  3430",
      "2 62115  43.0007 285.5380 0001254 266.2935  59.3142 15.27565828    11"
    ]
  },
  "62116": {
    "noradId": "62116",
    "tle": [
      "1 62116C 24222C   25343.47270833  .00041599  00000+0  15055-2 0  3437",
      "2 62116  43.0022 285.7959 0001703 274.1187 321.7947 15.27562211    11"
    ]
  },
  "62117": {
    "noradId": "62117",
    "tle": [
      "1 62117C 24222D   25343.47201389 -.00056731  00000+0 -20542-2 0  3431",
      "2 62117  43.0020 282.0449 0000852 233.8468  73.4728 15.27645070    15"
    ]
  },
  "62118": {
    "noradId": "62118",
    "tle": [
      "1 62118C 24222E   25343.46715278  .00035592  00000+0  12884-2 0  3438",
      "2 62118  43.0002 285.3568 0001474 268.0893 135.3372 15.27562266    15"
    ]
  },
  "62119": {
    "noradId": "62119",
    "tle": [
      "1 62119C 24222F   25343.46715278  .00039432  00000+0  14275-2 0  3432",
      "2 62119  43.0020 282.4781 0001656 271.4716 248.7679 15.27556203    18"
    ]
  },
  "62120": {
    "noradId": "62120",
    "tle": [
      "1 62120C 24222G   25343.46784722  .00041263  00000+0  14940-2 0  3438",
      "2 62120  43.0026 286.0077 0001689 268.1254 223.2423 15.27548938    11"
    ]
  },
  "62121": {
    "noradId": "62121",
    "tle": [
      "1 62121C 24222H   25343.47201389  .00027564  00000+0  99787-3 0  3434",
      "2 62121  43.0001 285.4104 0001399 272.6750 122.1496 15.27567258    11"
    ]
  },
  "62122": {
    "noradId": "62122",
    "tle": [
      "1 62122C 24222J   25343.46923611  .00033769  00000+0  12222-2 0  3435",
      "2 62122  43.0015 285.6604 0001397 274.5007   5.9803 15.27570129    19"
    ]
  },
  "62123": {
    "noradId": "62123",
    "tle": [
      "1 62123C 24222K   25343.47201389  .00037578  00000+0  13600-2 0  3431",
      "2 62123  43.0027 285.8991 0001429 271.2542 278.3918 15.27567414    14"
    ]
  },
  "62124": {
    "noradId": "62124",
    "tle": [
      "1 62124C 24222L   25343.46645833  .00032864  00000+0  11896-2 0  3435",
      "2 62124  43.0009 285.5905 0001562 277.0112  23.5606 15.27566778    18"
    ]
  },
  "62125": {
    "noradId": "62125",
    "tle": [
      "1 62125C 24222M   25343.47131944  .00040725  00000+0  14741-2 0  3437",
      "2 62125  43.0017 286.0376 0001524 276.7553 212.4765 15.27560474    11"
    ]
  },
  "62126": {
    "noradId": "62126",
    "tle": [
      "1 62126C 24222N   25343.46923611  .00042424  00000+0  15353-2 0  3435",
      "2 62126  43.0003 285.3764 0001766 269.5775 131.1519 15.27564232    14"
    ]
  },
  "62127": {
    "noradId": "62127",
    "tle": [
      "1 62127C 24222P   25343.46715278  .00031726  00000+0  11483-2 0  3437",
      "2 62127  43.0022 275.1123 0001502 279.1525   3.2057 15.27571243    16"
    ]
  },
  "62128": {
    "noradId": "62128",
    "tle": [
      "1 62128C 24222Q   25343.46784722  .00035424  00000+0  12811-2 0  3433",
      "2 62128  43.0023 285.8721 0001381 270.6886 277.1636 15.27592256    13"
    ]
  },
  "62129": {
    "noradId": "62129",
    "tle": [
      "1 62129C 24222R   25343.46854167  .00036014  00000+0  13034-2 0  3439",
      "2 62129  43.0022 282.3857 0001517 277.7493 285.4796 15.27568679    19"
    ]
  },
  "62130": {
    "noradId": "62130",
    "tle": [
      "1 62130C 24222S   25343.47131944  .00036148  00000+0  13085-2 0  3437",
      "2 62130  43.0007 285.4608 0001395 258.3996 111.3839 15.27562656    13"
    ]
  },
  "62131": {
    "noradId": "62131",
    "tle": [
      "1 62131C 24222T   25343.46854167  .00038898  00000+0  14079-2 0  3434",
      "2 62131  43.0028 285.9505 0001466 274.2168 242.1678 15.27563652    16"
    ]
  },
  "62132": {
    "noradId": "62132",
    "tle": [
      "1 62132C 24222U   25343.47131944  .00043698  00000+0  15819-2 0  3434",
      "2 62132  43.0006 285.2803 0001453 276.2147 171.3908 15.27552668    16"
    ]
  },
  "62133": {
    "noradId": "62133",
    "tle": [
      "1 62133C 24222V   25343.47062500  .00043118  00000+0  15608-2 0  3439",
      "2 62133  43.0023 285.7525 0001500 264.8559 340.8382 15.27555846    15"
    ]
  },
  "62134": {
    "noradId": "62134",
    "tle": [
      "1 62134C 24222W   25343.46715278  .00038003  00000+0  13755-2 0  3434",
      "2 62134  43.0024 282.4411 0001507 278.0700 256.2975 15.27563572    10"
    ]
  },
  "62135": {
    "noradId": "62135",
    "tle": [
      "1 62135C 24222X   25343.46923611  .00042223  00000+0  15284-2 0  3435",
      "2 62135  43.0014 286.0997 0001574 266.4204 190.1289 15.27556898    10"
    ]
  },
  "62136": {
    "noradId": "62136",
    "tle": [
      "1 62136C 24222Y   25343.46784722  .00034489  00000+0  12486-2 0  3430",
      "2 62136  43.0013 285.6307 0001419 285.0679   1.9147 15.27560664    19"
    ]
  },
  "62137": {
    "noradId": "62137",
    "tle": [
      "1 62137C 24222Z   25343.46506944  .00043166  00000+0  15622-2 0  3436",
      "2 62137  43.0018 285.7318 0001454 270.4389 325.8835 15.27561743    14"
    ]
  },
  "62139": {
    "noradId": "62139",
    "tle": [
      "1 62139C 24224A   25343.47131944  .00047523  00000+0  17203-2 0  3433",
      "2 62139  43.0027 307.8536 0001411 274.7904 307.0859 15.27550590    13"
    ]
  },
  "62140": {
    "noradId": "62140",
    "tle": [
      "1 62140C 24224B   25343.47201389  .00042991  00000+0  15563-2 0  3437",
      "2 62140  43.0028 307.9294 0001461 268.8690 274.3960 15.27552370    16"
    ]
  },
  "62141": {
    "noradId": "62141",
    "tle": [
      "1 62141C 24224C   25343.46993056  .00041635  00000+0  15076-2 0  3439",
      "2 62141  43.0016 307.4292 0001458 268.3976 115.6656 15.27545385    12"
    ]
  },
  "62142": {
    "noradId": "62142",
    "tle": [
      "1 62142C 24224D   25343.46854167  .00046507  00000+0  16841-2 0  3433",
      "2 62142  43.0025 315.1561 0001459 256.1680 145.9958 15.27539286    10"
    ]
  },
  "62143": {
    "noradId": "62143",
    "tle": [
      "1 62143C 24224E   25343.46645833  .00046741  00000+0  16950-2 0  3433",
      "2 62143  43.0016 310.8196 0001590 266.3326 136.6646 15.27492133    13"
    ]
  },
  "62144": {
    "noradId": "62144",
    "tle": [
      "1 62144C 24224F   25343.46715278 -.00124650  00000+0 -45126-2 0  3430",
      "2 62144  43.0032 315.1144 0001426 268.4835 147.2197 15.27718639    10"
    ]
  },
  "62145": {
    "noradId": "62145",
    "tle": [
      "1 62145C 24224G   25343.46576389  .00048572  00000+0  17587-2 0  3435",
      "2 62145  43.0029 307.7402 0001370 274.9709 325.8771 15.27542023    15"
    ]
  },
  "62146": {
    "noradId": "62146",
    "tle": [
      "1 62146C 24224H   25343.46506944  .00048732  00000+0  17641-2 0  3435",
      "2 62146  43.0028 307.7640 0001385 273.9205 316.0127 15.27548201    16"
    ]
  },
  "62147": {
    "noradId": "62147",
    "tle": [
      "1 62147C 24224J   25343.47131944  .00041296  00000+0  14939-2 0  3436",
      "2 62147  43.0026 307.8622 0001066 275.4027 292.2543 15.27578537    13"
    ]
  },
  "62148": {
    "noradId": "62148",
    "tle": [
      "1 62148C 24224K   25343.47062500  .00049085  00000+0  17773-2 0  3431",
      "2 62148  43.0023 307.5941 0001378 253.4309  63.7163 15.27540353    11"
    ]
  },
  "62149": {
    "noradId": "62149",
    "tle": [
      "1 62149C 24224L   25343.46784722  .00047707  00000+0  17274-2 0  3433",
      "2 62149  43.0024 307.5908 0001322 279.9906  28.9336 15.27542126    16"
    ]
  },
  "62150": {
    "noradId": "62150",
    "tle": [
      "1 62150C 24224M   25343.46923611  .00048307  00000+0  17494-2 0  3438",
      "2 62150  43.0010 307.2310 0001613 251.9804 213.1756 15.27535274    17"
    ]
  },
  "62151": {
    "noradId": "62151",
    "tle": [
      "1 62151C 24224N   25343.46576389 -.00104390  00000+0 -37802-2 0  3437",
      "2 62151  43.0030 307.8743 0001398 269.7194 274.5049 15.27688929    17"
    ]
  },
  "62152": {
    "noradId": "62152",
    "tle": [
      "1 62152C 24224P   25343.46923611  .00044039  00000+0  15946-2 0  3438",
      "2 62152  43.0010 310.9401 0001237 277.0578  84.6188 15.27544854    14"
    ]
  },
  "62153": {
    "noradId": "62153",
    "tle": [
      "1 62153C 24224Q   25343.47201389  .00041137  00000+0  14890-2 0  3434",
      "2 62153  43.0024 307.8063 0001349 270.0422 322.7439 15.27559962    15"
    ]
  }
}